ONEWEB-0395             
1 50475U 21132G   25266.96760184 -.00000346  00000+0 -10110-2 0  9991
2 50475  87.8785  74.1106 0001884  95.4376 264.6967 13.11420223180828
ONEWEB-0396             
1 50476U 21132H   25266.84059524  .00000018  00000+0  12112-4 0  9998
2 50476  87.9212  28.3384 0001783  95.7161 264.4174 13.18684631186531
ONEWEB-0397             
1 50477U 21132J   25266.85544527  .00000007  00000+0 -16117-4 0  9990
2 50477  87.9210  28.3367 0001630  90.7359 269.3960 13.18686154186513
ONEWEB-0398             
1 50478U 21132K   25266.93539449  .00000028  00000+0  43648-4 0  9998
2 50478  87.8793  74.0834 0001831 104.0937 256.0394 13.11414034180719
ONEWEB-0399             
1 50479U 21132L   25266.92184268  .00000611  00000+0  16878-2 0  9994
2 50479  87.8784  74.1068 0001986  77.2667 282.8683 13.11416249180709
ONEWEB-0400             
1 50480U 21132M   25266.90987385  .00000018  00000+0  14011-4 0  9995
2 50480  87.9208  28.3156 0001823 105.5810 254.5524 13.18686574186519
ONEWEB-0401             
1 50481U 21132N   25266.80266083  .00000043  00000+0  76018-4 0  9993
2 50481  87.9210  28.3337 0001524  94.9131 265.2175 13.18687755186501
ONEWEB-0402             
1 50482U 21132P   25266.84225474  .00000050  00000+0  92951-4 0  9999
2 50482  87.9211  28.3189 0001151  86.3912 273.7352 13.18686924186537
